{
  "type": "FeatureCollection",
  "features": [
    {
      "type": "Feature",
      "properties": {},
      "geometry": {
        "type": "Polygon",
        "coordinates": [
          [
            [
              836.918671131134,
              32.77305851438083
            ],
            [
              836.916353702545,
              32.76555269833217
            ],
            [
              836.925323009491,
              32.76477682067756
            ],
            [
              836.9260311126708,
              32.77114603480575
            ],
            [
              836.918671131134,
              32.77305851438083
            ]
          ]
        ]
      }
    },
    {
      "type": "Feature",
      "properties": {},
      "geometry": {
        "type": "LineString",
        "coordinates": [
          [
            836.9105386734008,
            32.76688791381288
          ],
          [
            836.9156455993652,
            32.77670293714836
          ],
          [
            836.9326400756836,
            32.772805925094296
          ],
          [
            836.9271039962769,
            32.76151084292581
          ]
        ]
      }
    }
  ]
}